[
  {
    "OBJECT_NAME": "STARLINK-32814",
    "OBJECT_ID": "25022T",
    "EPOCH": "2025-11-11T07:16:34.205952",
    "MEAN_MOTION": 15.30205898,
    "ECCENTRICITY": 0.0001359,
    "INCLINATION": 53.1592,
    "RA_OF_ASC_NODE": 319.5845,
    "ARG_OF_PERICENTER": 79.6096,
    "MEAN_ANOMALY": 280.5058,
    "EPHEMERIS_TYPE": 0,
    "CLASSIFICATION_TYPE": "U",
    "NORAD_CAT_ID": 62871,
    "ELEMENT_SET_NO": 999,
    "REV_AT_EPOCH": 4377,
    "BSTAR": 0.001281,
    "MEAN_MOTION_DOT": 0.0003778,
    "MEAN_MOTION_DDOT": 0.0,
    "TLE_LINE1": "1 62871U 25022T   25315.30317368  .00037780  00000+0  12810-2 0  9990",
    "TLE_LINE2": "2 62871  53.1592 319.5845 0001359  79.6096 280.5058 15.30205898 43771",
    "COMMENT": "Grouped by shell and plane from TLE"
  },
  {
    "OBJECT_NAME": "STARLINK-32833",
    "OBJECT_ID": "25022V",
    "EPOCH": "2025-11-11T06:56:48.847200",
    "MEAN_MOTION": 15.30199391,
    "ECCENTRICITY": 0.0001273,
    "INCLINATION": 53.161,
    "RA_OF_ASC_NODE": 319.4941,
    "ARG_OF_PERICENTER": 91.8165,
    "MEAN_ANOMALY": 268.2982,
    "EPHEMERIS_TYPE": 0,
    "CLASSIFICATION_TYPE": "U",
    "NORAD_CAT_ID": 62873,
    "ELEMENT_SET_NO": 999,
    "REV_AT_EPOCH": 4377,
    "BSTAR": 0.0017836,
    "MEAN_MOTION_DOT": 0.0005284,
    "MEAN_MOTION_DDOT": 0.0,
    "TLE_LINE1": "1 62873U 25022V   25315.28945425  .00052840  00000+0  17836-2 0  9997",
    "TLE_LINE2": "2 62873  53.1610 319.4941 0001273  91.8165 268.2982 15.30199391 43777",
    "COMMENT": "Grouped by shell and plane from TLE"
  },
  {
    "OBJECT_NAME": "STARLINK-32793",
    "OBJECT_ID": "25022W",
    "EPOCH": "2025-11-11T07:24:09.842400",
    "MEAN_MOTION": 15.30219297,
    "ECCENTRICITY": 0.0001257,
    "INCLINATION": 53.1589,
    "RA_OF_ASC_NODE": 319.6138,
    "ARG_OF_PERICENTER": 91.0401,
    "MEAN_ANOMALY": 269.0744,
    "EPHEMERIS_TYPE": 0,
    "CLASSIFICATION_TYPE": "U",
    "NORAD_CAT_ID": 62874,
    "ELEMENT_SET_NO": 999,
    "REV_AT_EPOCH": 4377,
    "BSTAR": 0.00080008,
    "MEAN_MOTION_DOT": 0.00023426,
    "MEAN_MOTION_DDOT": 0.0,
    "TLE_LINE1": "1 62874U 25022W   25315.30844725  .00023426  00000+0  80008-3 0  9992",
    "TLE_LINE2": "2 62874  53.1589 319.6138 0001257  91.0401 269.0744 15.30219297 43773",
    "COMMENT": "Grouped by shell and plane from TLE"
  },
  {
    "OBJECT_NAME": "STARLINK-32834",
    "OBJECT_ID": "25022X",
    "EPOCH": "2025-11-11T06:59:50.482464",
    "MEAN_MOTION": 15.30177334,
    "ECCENTRICITY": 0.0001653,
    "INCLINATION": 53.16,
    "RA_OF_ASC_NODE": 319.5033,
    "ARG_OF_PERICENTER": 58.2389,
    "MEAN_ANOMALY": 301.8772,
    "EPHEMERIS_TYPE": 0,
    "CLASSIFICATION_TYPE": "U",
    "NORAD_CAT_ID": 62875,
    "ELEMENT_SET_NO": 999,
    "REV_AT_EPOCH": 4377,
    "BSTAR": 0.00029349,
    "MEAN_MOTION_DOT": 8.337e-05,
    "MEAN_MOTION_DDOT": 0.0,
    "TLE_LINE1": "1 62875U 25022X   25315.29155651  .00008337  00000+0  29349-3 0  9999",
    "TLE_LINE2": "2 62875  53.1600 319.5033 0001653  58.2389 301.8772 15.30177334 43772",
    "COMMENT": "Grouped by shell and plane from TLE"
  },
  {
    "OBJECT_NAME": "STARLINK-32941",
    "OBJECT_ID": "25039R",
    "EPOCH": "2025-11-11T01:11:28.154688",
    "MEAN_MOTION": 15.27593167,
    "ECCENTRICITY": 0.0001465,
    "INCLINATION": 43.0025,
    "RA_OF_ASC_NODE": 311.4263,
    "ARG_OF_PERICENTER": 267.9153,
    "MEAN_ANOMALY": 92.1531,
    "EPHEMERIS_TYPE": 0,
    "CLASSIFICATION_TYPE": "U",
    "NORAD_CAT_ID": 63119,
    "ELEMENT_SET_NO": 999,
    "REV_AT_EPOCH": 4005,
    "BSTAR": 0.0012845,
    "MEAN_MOTION_DOT": 0.00035269,
    "MEAN_MOTION_DDOT": 0.0,
    "TLE_LINE1": "1 63119U 25039R   25315.04963142  .00035269  00000+0  12845-2 0  9990",
    "TLE_LINE2": "2 63119  43.0025 311.4263 0001465 267.9153  92.1531 15.27593167 40051",
    "COMMENT": "Grouped by shell and plane from TLE"
  },
  {
    "OBJECT_NAME": "STARLINK-33879",
    "OBJECT_ID": "25083A",
    "EPOCH": "2025-11-11T00:26:38.243616",
    "MEAN_MOTION": 15.27597701,
    "ECCENTRICITY": 0.0001678,
    "INCLINATION": 43.0023,
    "RA_OF_ASC_NODE": 315.7489,
    "ARG_OF_PERICENTER": 265.4472,
    "MEAN_ANOMALY": 94.6188,
    "EPHEMERIS_TYPE": 0,
    "CLASSIFICATION_TYPE": "U",
    "NORAD_CAT_ID": 63634,
    "ELEMENT_SET_NO": 999,
    "REV_AT_EPOCH": 3191,
    "BSTAR": 0.001219,
    "MEAN_MOTION_DOT": 0.00033452,
    "MEAN_MOTION_DDOT": 0.0,
    "TLE_LINE1": "1 63634U 25083A   25315.01849819  .00033452  00000+0  12190-2 0  9997",
    "TLE_LINE2": "2 63634  43.0023 315.7489 0001678 265.4472  94.6188 15.27597701 31919",
    "COMMENT": "Grouped by shell and plane from TLE"
  },
  {
    "OBJECT_NAME": "STARLINK-33854",
    "OBJECT_ID": "25083B",
    "EPOCH": "2025-11-11T00:59:43.991232",
    "MEAN_MOTION": 15.2761412,
    "ECCENTRICITY": 0.0001934,
    "INCLINATION": 43.0034,
    "RA_OF_ASC_NODE": 315.0627,
    "ARG_OF_PERICENTER": 291.054,
    "MEAN_ANOMALY": 69.0104,
    "EPHEMERIS_TYPE": 0,
    "CLASSIFICATION_TYPE": "U",
    "NORAD_CAT_ID": 63635,
    "ELEMENT_SET_NO": 999,
    "REV_AT_EPOCH": 3192,
    "BSTAR": 0.0015417,
    "MEAN_MOTION_DOT": 0.00042451,
    "MEAN_MOTION_DDOT": 0.0,
    "TLE_LINE1": "1 63635U 25083B   25315.04148138  .00042451  00000+0  15417-2 0  9991",
    "TLE_LINE2": "2 63635  43.0034 315.0627 0001934 291.0540  69.0104 15.27614120 31925",
    "COMMENT": "Grouped by shell and plane from TLE"
  },
  {
    "OBJECT_NAME": "STARLINK-33864",
    "OBJECT_ID": "25083C",
    "EPOCH": "2025-11-11T00:32:11.162688",
    "MEAN_MOTION": 15.27612758,
    "ECCENTRICITY": 0.0001005,
    "INCLINATION": 42.9974,
    "RA_OF_ASC_NODE": 315.777,
    "ARG_OF_PERICENTER": 180.4075,
    "MEAN_ANOMALY": 179.6776,
    "EPHEMERIS_TYPE": 0,
    "CLASSIFICATION_TYPE": "U",
    "NORAD_CAT_ID": 63636,
    "ELEMENT_SET_NO": 999,
    "REV_AT_EPOCH": 3194,
    "BSTAR": 0.0013647000000000002,
    "MEAN_MOTION_DOT": 0.00037521,
    "MEAN_MOTION_DDOT": 0.0,
    "TLE_LINE1": "1 63636U 25083C   25315.02235142  .00037521  00000+0  13647-2 0  9997",
    "TLE_LINE2": "2 63636  42.9974 315.7770 0001005 180.4075 179.6776 15.27612758 31946",
    "COMMENT": "Grouped by shell and plane from TLE"
  },
  {
    "OBJECT_NAME": "STARLINK-33832",
    "OBJECT_ID": "25083D",
    "EPOCH": "2025-11-11T07:05:14.705376",
    "MEAN_MOTION": 15.27616477,
    "ECCENTRICITY": 9.13e-05,
    "INCLINATION": 43.0017,
    "RA_OF_ASC_NODE": 313.5277,
    "ARG_OF_PERICENTER": 262.8227,
    "MEAN_ANOMALY": 97.2521,
    "EPHEMERIS_TYPE": 0,
    "CLASSIFICATION_TYPE": "U",
    "NORAD_CAT_ID": 63637,
    "ELEMENT_SET_NO": 999,
    "REV_AT_EPOCH": 3196,
    "BSTAR": 0.0014452999999999998,
    "MEAN_MOTION_DOT": 0.00039767,
    "MEAN_MOTION_DDOT": 0.0,
    "TLE_LINE1": "1 63637U 25083D   25315.29530909  .00039767  00000+0  14453-2 0  9996",
    "TLE_LINE2": "2 63637  43.0017 313.5277 0000913 262.8227  97.2521 15.27616477 31963",
    "COMMENT": "Grouped by shell and plane from TLE"
  },
  {
    "OBJECT_NAME": "STARLINK-33856",
    "OBJECT_ID": "25083E",
    "EPOCH": "2025-11-11T07:20:02.208768",
    "MEAN_MOTION": 15.27588394,
    "ECCENTRICITY": 0.0001225,
    "INCLINATION": 43.0027,
    "RA_OF_ASC_NODE": 313.5946,
    "ARG_OF_PERICENTER": 262.0271,
    "MEAN_ANOMALY": 98.0442,
    "EPHEMERIS_TYPE": 0,
    "CLASSIFICATION_TYPE": "U",
    "NORAD_CAT_ID": 63638,
    "ELEMENT_SET_NO": 999,
    "REV_AT_EPOCH": 3196,
    "BSTAR": 0.0017594000000000002,
    "MEAN_MOTION_DOT": 0.00048484,
    "MEAN_MOTION_DDOT": 0.0,
    "TLE_LINE1": "1 63638U 25083E   25315.30558112  .00048484  00000+0  17594-2 0  9990",
    "TLE_LINE2": "2 63638  43.0027 313.5946 0001225 262.0271  98.0442 15.27588394 31963",
    "COMMENT": "Grouped by shell and plane from TLE"
  },
  {
    "OBJECT_NAME": "STARLINK-33876",
    "OBJECT_ID": "25083F",
    "EPOCH": "2025-11-11T01:25:37.992000",
    "MEAN_MOTION": 15.27609546,
    "ECCENTRICITY": 0.0001069,
    "INCLINATION": 43.0037,
    "RA_OF_ASC_NODE": 315.1869,
    "ARG_OF_PERICENTER": 216.7648,
    "MEAN_ANOMALY": 143.313,
    "EPHEMERIS_TYPE": 0,
    "CLASSIFICATION_TYPE": "U",
    "NORAD_CAT_ID": 63639,
    "ELEMENT_SET_NO": 999,
    "REV_AT_EPOCH": 3192,
    "BSTAR": 0.0011828,
    "MEAN_MOTION_DOT": 0.00032459,
    "MEAN_MOTION_DDOT": 0.0,
    "TLE_LINE1": "1 63639U 25083F   25315.05946750  .00032459  00000+0  11828-2 0  9991",
    "TLE_LINE2": "2 63639  43.0037 315.1869 0001069 216.7648 143.3130 15.27609546 31924",
    "COMMENT": "Grouped by shell and plane from TLE"
  },
  {
    "OBJECT_NAME": "STARLINK-33859",
    "OBJECT_ID": "25083G",
    "EPOCH": "2025-11-11T00:30:20.501568",
    "MEAN_MOTION": 15.27611705,
    "ECCENTRICITY": 5.58e-05,
    "INCLINATION": 42.9981,
    "RA_OF_ASC_NODE": 315.7702,
    "ARG_OF_PERICENTER": 150.7002,
    "MEAN_ANOMALY": 209.3881,
    "EPHEMERIS_TYPE": 0,
    "CLASSIFICATION_TYPE": "U",
    "NORAD_CAT_ID": 63640,
    "ELEMENT_SET_NO": 999,
    "REV_AT_EPOCH": 3191,
    "BSTAR": 0.0012656999999999998,
    "MEAN_MOTION_DOT": 0.00034765,
    "MEAN_MOTION_DDOT": 0.0,
    "TLE_LINE1": "1 63640U 25083G   25315.02107062  .00034765  00000+0  12657-2 0  9998",
    "TLE_LINE2": "2 63640  42.9981 315.7702 0000558 150.7002 209.3881 15.27611705 31912",
    "COMMENT": "Grouped by shell and plane from TLE"
  },
  {
    "OBJECT_NAME": "STARLINK-33826",
    "OBJECT_ID": "25083H",
    "EPOCH": "2025-11-11T07:23:45.342816",
    "MEAN_MOTION": 15.27591391,
    "ECCENTRICITY": 0.0001155,
    "INCLINATION": 43.0034,
    "RA_OF_ASC_NODE": 313.619,
    "ARG_OF_PERICENTER": 267.3004,
    "MEAN_ANOMALY": 92.7716,
    "EPHEMERIS_TYPE": 0,
    "CLASSIFICATION_TYPE": "U",
    "NORAD_CAT_ID": 63641,
    "ELEMENT_SET_NO": 999,
    "REV_AT_EPOCH": 3196,
    "BSTAR": 0.0014301,
    "MEAN_MOTION_DOT": 0.00039315,
    "MEAN_MOTION_DDOT": 0.0,
    "TLE_LINE1": "1 63641U 25083H   25315.30816369  .00039315  00000+0  14301-2 0  9991",
    "TLE_LINE2": "2 63641  43.0034 313.6190 0001155 267.3004  92.7716 15.27591391 31967",
    "COMMENT": "Grouped by shell and plane from TLE"
  }
]